{
"type": "FeatureCollection",
"name": "neighbor_countries_simplified",
"crs": { "type": "name", "properties": { "name": "urn:ogc:def:crs:OGC:1.3:CRS84" } },
"features": [
{ "type": "Feature", "properties": { "name": "Myanmar" }, "geometry": { "type": "Polygon", "coordinates": [ [ [ 99.543309360759309, 20.186597601802063 ], [ 98.959675734454876, 19.752980658440947 ], [ 98.25372399291561, 19.708203029860044 ], [ 97.797782830804408, 18.627080389881755 ], [ 97.375896437573545, 18.445437730375815 ], [ 97.859122755934862, 17.567946071843664 ], [ 98.49376102091135, 16.837835598207931 ], [ 98.903348423256759, 16.177824204976119 ], [ 98.537375929765716, 15.308497422746084 ], [ 98.192074009191401, 15.123702500870351 ], [ 98.430819126379873, 14.622027696180837 ], [ 99.097755161538757, 13.827502549693278 ], [ 99.212011753336085, 13.269293728076464 ], [ 99.196353794351666, 12.80474843998867 ], [ 99.587286004639722, 11.892762762901697 ], [ 99.038120558673981, 10.960545762572437 ], [ 98.553550653073046, 9.932959906448545 ], [ 98.457174106848726, 10.67526601810515 ], [ 98.764545526120784, 11.441291612183749 ], [ 98.428338657629851, 12.032986761925685 ], [ 98.509574009192676, 13.122377631070677 ], [ 98.103603957107694, 13.640459703012851 ], [ 97.777732375075175, 14.837285874892642 ], [ 97.597071567782763, 16.100567938699768 ], [ 97.164539829499802, 16.92873444260934 ], [ 96.505768670642993, 16.427240505432849 ], [ 95.369352248112406, 15.714389960182601 ], [ 94.80840457558412, 15.803454291237641 ], [ 94.188804152404543, 16.037936102762018 ], [ 94.533485955791349, 17.277240301985728 ], [ 94.324816522196755, 18.2135139022499 ], [ 93.540988397193644, 19.366492621330025 ], [ 93.663254835996213, 19.726961574781996 ], [ 93.078277622452191, 19.855144965081976 ], [ 92.36855350135562, 20.670883287025347 ], [ 92.303234490938678, 21.475485337809818 ], [ 92.65225711463799, 21.324047552978485 ], [ 92.684185568068116, 22.046750877396139 ], [ 92.802236994569128, 22.103507797521079 ], [ 92.867736816406421, 22.065362930297908 ], [ 92.910888671875057, 21.946229934692326 ], [ 92.955802917480753, 22.02992057800293 ], [ 93.009246826171875, 21.983930587768555 ], [ 93.013267517090014, 22.102210998535099 ], [ 93.065567016601619, 22.102052688598576 ], [ 93.046661376953296, 22.197620391845817 ], [ 93.154411315918139, 22.178190231323299 ], [ 93.147109985351847, 22.246540069580078 ], [ 93.208580017090014, 22.261068344116211 ], [ 93.190811157226506, 22.427259445190487 ], [ 93.111686706543139, 22.531789779663313 ], [ 93.144371032714901, 22.598859786987305 ], [ 93.091751098632869, 22.709341049194393 ], [ 93.261566028864266, 23.006352820162078 ], [ 93.297721862793026, 23.005798339843807 ], [ 93.393646240234432, 23.13861274719261 ], [ 93.365806579589901, 23.354480743408146 ], [ 93.414237976074276, 23.388011932373161 ], [ 93.397186279296818, 23.433311462402457 ], [ 93.444702148437671, 23.682428359985408 ], [ 93.405288696289119, 23.761590957641715 ], [ 93.398719787597656, 23.930280685424862 ], [ 93.334426879882756, 23.98694992065424 ], [ 93.342184809876088, 24.073601905483585 ], [ 93.436256784989936, 24.046180832864607 ], [ 93.508712768554801, 23.948900222778434 ], [ 93.613106309261056, 23.994630903761905 ], [ 94.161460876464787, 23.852779388427962 ], [ 94.261527752590837, 24.136939392335478 ], [ 94.557004307879154, 24.717099600296024 ], [ 94.610847473144531, 24.722112655639648 ], [ 94.637847900390682, 24.842359542846907 ], [ 94.719070434570369, 24.942470550537166 ], [ 94.703140258789006, 24.978271484375114 ], [ 94.742210388183878, 25.025249481201229 ], [ 94.745658874512003, 25.136590957641658 ], [ 94.625308081104464, 25.196021715673034 ], [ 94.86654568658561, 25.562666735539135 ], [ 94.904991149902514, 25.567110061645621 ], [ 94.888977050781421, 25.593111038208008 ], [ 94.937576293945312, 25.669031143188477 ], [ 95.05252838134794, 25.762659072875977 ], [ 95.039457654327421, 25.825467022092031 ], [ 95.185699462890568, 26.080350875854492 ], [ 95.150103562770525, 26.096413228699454 ], [ 95.126475684458214, 26.54140493691439 ], [ 95.154537132464583, 26.58946211508416 ], [ 95.423309326171989, 26.696712493896598 ], [ 95.475421615808244, 26.760740548393734 ], [ 96.419365675850969, 27.264589341739224 ], [ 97.133999058015306, 27.083773505149964 ], [ 97.167205810547159, 27.155479431152457 ], [ 97.116273738316423, 27.216758079185752 ], [ 97.051988559968095, 27.699058946233151 ], [ 97.402561476636137, 27.882536119085444 ], [ 97.381282908819742, 27.989439060820626 ], [ 97.415161132812784, 28.024080276489315 ], [ 97.377067565917969, 28.039091110229549 ], [ 97.34520039956287, 28.170716598765306 ], [ 97.400566101074389, 28.200500488281307 ], [ 97.327113885490036, 28.261582749946339 ], [ 97.911987746169444, 28.335945136014345 ], [ 98.246230910233294, 27.747221381129179 ], [ 98.682690057370465, 27.508812160750619 ], [ 98.712093947344513, 26.743535874940267 ], [ 98.671838006589155, 25.918702500913525 ], [ 97.724609002679145, 25.083637193293001 ], [ 97.604719679761985, 23.897404690033042 ], [ 98.660262485755766, 24.063286037689966 ], [ 98.898749220782776, 23.142722072842531 ], [ 99.531992222087396, 22.949038804612581 ], [ 99.240898878987252, 22.118314317304581 ], [ 100.416537713627378, 21.558839423096614 ], [ 101.15003299357825, 21.849984442629022 ], [ 101.180005324307544, 21.436572984294028 ], [ 100.329101190189533, 20.786121731036232 ], [ 100.115987583417848, 20.417849636308187 ], [ 99.543309360759309, 20.186597601802063 ] ] ] } },
{ "type": "Feature", "properties": { "name": "Bangladesh" }, "geometry": { "type": "MultiPolygon", "coordinates": [ [ [ [ 92.65225711463799, 21.324047552978485 ], [ 92.303234490938678, 21.475485337809818 ], [ 92.36855350135562, 20.670883287025347 ], [ 92.082886183646139, 21.19219513598577 ], [ 92.02521528520839, 21.701569729086767 ], [ 91.834890985077436, 22.182935695885565 ], [ 91.41708702999766, 22.765019029221222 ], [ 90.496006300827275, 22.805016587815128 ], [ 90.586956821660976, 22.392793687422866 ], [ 90.272970819055558, 21.836367702720111 ], [ 89.847467075564282, 22.039146023033425 ], [ 89.702049595094934, 21.857115790285306 ], [ 89.418862746135488, 21.966178900637299 ], [ 89.038181032543264, 22.054269066097238 ], [ 89.020433844909121, 22.116692447858096 ], [ 89.050476074219034, 22.130632400512809 ], [ 89.022216796875057, 22.148611068725813 ], [ 89.003364713590642, 22.206993932915974 ], [ 89.062187194824389, 22.12842941284174 ], [ 89.096260070801065, 22.155012130737475 ], [ 89.068641662597599, 22.147361755371378 ], [ 89.066902160644815, 22.198314666748274 ], [ 88.993888854980469, 22.286111831664982 ], [ 89.023330688476619, 22.297502517700252 ], [ 88.983612060547046, 22.325338363647631 ], [ 88.965047032816159, 22.409707440320012 ], [ 88.998611450195597, 22.430292129516715 ], [ 88.915379453308773, 22.672465755612293 ], [ 88.931945800781421, 22.645549774169922 ], [ 88.959190368652514, 22.691169738769645 ], [ 88.919189453125057, 22.761711120605753 ], [ 88.967529296875284, 22.842628479003849 ], [ 88.909332275390909, 22.877401351928938 ], [ 88.913879394531307, 22.918619155883789 ], [ 88.846733093261776, 23.002431869506779 ], [ 88.873413085937557, 23.004341125488395 ], [ 88.869567871093921, 23.095359802246037 ], [ 88.994697570800952, 23.212360382080192 ], [ 88.919158935547046, 23.208311080932674 ], [ 88.817878723144702, 23.25098991394043 ], [ 88.796707153320483, 23.215570449829045 ], [ 88.720359802246037, 23.25266265869152 ], [ 88.697402954101619, 23.296480178833008 ], [ 88.746078491211222, 23.309801101684513 ], [ 88.733558654785327, 23.346300125122127 ], [ 88.76230621337919, 23.361749649047908 ], [ 88.798507690429801, 23.494890213012752 ], [ 88.742919921875171, 23.480779647827092 ], [ 88.659187316894702, 23.55265998840332 ], [ 88.644920349121151, 23.608060836791992 ], [ 88.580856323242244, 23.600740432739315 ], [ 88.592422485351733, 23.636571884155387 ], [ 88.561676025390568, 23.642070770263786 ], [ 88.594866532696045, 23.861649399129831 ], [ 88.731536865234432, 23.912982940673828 ], [ 88.734962463378963, 23.978170394897575 ], [ 88.770988464355526, 23.984781265258903 ], [ 88.758743286132983, 24.008182525634766 ], [ 88.727188110351847, 23.994501113891715 ], [ 88.737632751464901, 24.059429168701115 ], [ 88.694686889648494, 24.113399505615178 ], [ 88.734687805175781, 24.275239944458121 ], [ 88.702507019043026, 24.31065940856945 ], [ 88.586257934570597, 24.325941085815373 ], [ 88.555232072219695, 24.296708089686966 ], [ 88.528709411621264, 24.344181060791129 ], [ 88.287625329135338, 24.413200488552921 ], [ 88.112264404178305, 24.547371526350496 ], [ 88.306372511756024, 24.866079413344206 ], [ 88.865724700680545, 25.199457571572061 ], [ 88.923027038574276, 25.167129516601506 ], [ 88.95664215087919, 25.259269714355469 ], [ 89.011253356933594, 25.292381286621207 ], [ 88.925605773925781, 25.303560256958008 ], [ 88.843658447265682, 25.362409591674805 ], [ 88.810386657714787, 25.519750595092717 ], [ 88.76285552978544, 25.521320343017805 ], [ 88.769096374511776, 25.492300033569336 ], [ 88.711120605468807, 25.497041702270565 ], [ 88.698883056640682, 25.469970703125114 ], [ 88.563493981321955, 25.508643407717255 ], [ 88.446395874023494, 25.596981048583984 ], [ 88.456726074219034, 25.66049957275419 ], [ 88.40714263916044, 25.669319152831974 ], [ 88.269927978515682, 25.808139801025391 ], [ 88.223650255257184, 25.794686679326368 ], [ 88.563049350949768, 26.446525580342723 ], [ 88.68333247858493, 26.380902332917575 ], [ 88.704368591308764, 26.334360122680721 ], [ 88.751423965916501, 26.343753444220066 ], [ 88.761581420898438, 26.300590515136776 ], [ 88.821586608886832, 26.300712585449219 ], [ 88.846786499023722, 26.234270095825252 ], [ 88.88510894775402, 26.238849639892635 ], [ 88.870271841251594, 26.278913231944216 ], [ 89.352447509765909, 26.010509490966797 ], [ 89.552709932909494, 25.993988939967512 ], [ 89.554496765136889, 25.964620590210018 ], [ 89.587880750292967, 25.990354977508911 ], [ 89.832480910199621, 25.965082098895479 ], [ 89.844988816918772, 25.866487992943821 ], [ 89.814529418945369, 25.81698036193859 ], [ 89.872033510195408, 25.653307049543759 ], [ 89.870101928711222, 25.544221878051871 ], [ 89.879959106445369, 25.488639831543026 ], [ 89.857780456542969, 25.534830093383846 ], [ 89.821662902831974, 25.385360717773438 ], [ 89.834266662597656, 25.295669555664006 ], [ 89.916839086440376, 25.300125191802675 ], [ 89.920692580121852, 25.269749864192178 ], [ 90.341529846191463, 25.193500518798942 ], [ 90.452362060546932, 25.144502639770508 ], [ 90.516700744628849, 25.175069808960075 ], [ 90.872210727912119, 25.132600612889547 ], [ 91.608002736006355, 25.144367708973526 ], [ 91.64453125, 25.122720718383732 ], [ 91.79959598182208, 25.147431748957317 ], [ 92.376201613334814, 24.976692816664965 ], [ 92.331675526859257, 24.894973500833178 ], [ 92.298377990722656, 24.920049667358512 ], [ 92.24051666259777, 24.899190902710188 ], [ 92.277392403320562, 24.795346965740571 ], [ 92.054336195626647, 24.385968955508645 ], [ 91.974090576172159, 24.388639450073356 ], [ 91.995429992676065, 24.321260452270451 ], [ 91.957107543945597, 24.356250762939453 ], [ 91.920433044433651, 24.335750579834098 ], [ 91.941856384277628, 24.267578125000114 ], [ 91.902626037597827, 24.137838363647575 ], [ 91.841751098632812, 24.197719573974553 ], [ 91.847488403320483, 24.22832107543951 ], [ 91.815559387207145, 24.208951950073299 ], [ 91.743469238281534, 24.247127532958984 ], [ 91.761199951171989, 24.141582489013786 ], [ 91.692398071289006, 24.159328460693473 ], [ 91.667526245117244, 24.230400085449332 ], [ 91.613921542405123, 24.091519247676423 ], [ 91.375427246093921, 24.107530593872127 ], [ 91.378196716308707, 23.976879119873047 ], [ 91.283676147461108, 23.983102798461914 ], [ 91.276268005371264, 23.926240921020451 ], [ 91.235221862792969, 23.928600311279297 ], [ 91.257606506347713, 23.839651107788143 ], [ 91.224617004394588, 23.740100860595817 ], [ 91.160430908203068, 23.739429473876953 ], [ 91.158287048339957, 23.691221237182617 ], [ 91.210060119629077, 23.687551498413029 ], [ 91.198890686035213, 23.646970748901367 ], [ 91.161277770996151, 23.670600891113395 ], [ 91.195337374133899, 23.570570976891918 ], [ 91.158963250699728, 23.503526923104388 ], [ 91.31873440028491, 23.35229097603597 ], [ 91.297256469726562, 23.320980072021541 ], [ 91.332305908203125, 23.252750396728572 ], [ 91.330337524414347, 23.157672882080078 ], [ 91.377677917480412, 23.064050674438533 ], [ 91.4219970703125, 23.059249877929744 ], [ 91.388839721679744, 23.179460525512752 ], [ 91.413676834375508, 23.262420502086503 ], [ 91.507133519290605, 23.173956406474087 ], [ 91.548889160156307, 22.994762420654297 ], [ 91.618713378906364, 22.944150924682674 ], [ 91.65213775634794, 22.991950988769645 ], [ 91.725578308105412, 22.989320755004996 ], [ 91.835502624511889, 23.093910217285213 ], [ 91.774972585622578, 23.253082198240914 ], [ 91.847358703613338, 23.400230407714901 ], [ 91.975166320800838, 23.482442855835018 ], [ 91.95162378691623, 23.625279131334029 ], [ 92.146034783906813, 23.627498684172593 ], [ 92.597521112528014, 22.267723925208994 ], [ 92.609977722168253, 22.121309280395621 ], [ 92.570419311523494, 22.129121780395621 ], [ 92.609680175781421, 21.976837158203239 ], [ 92.671859198902624, 22.011036256177718 ], [ 92.65225711463799, 21.324047552978485 ] ], [ [ 88.675102233886832, 24.315378189086914 ], [ 88.674819946289233, 24.314569473266715 ], [ 88.675971984863452, 24.315500259399528 ], [ 88.675102233886832, 24.315378189086914 ] ], [ [ 88.936050415039347, 22.62157058715826 ], [ 88.9345703125, 22.621492385864258 ], [ 88.936508178711108, 22.619136810303019 ], [ 88.936050415039347, 22.62157058715826 ] ] ], [ [ [ 89.027532170609973, 22.079139901085135 ], [ 89.028800964355639, 22.077131271362418 ], [ 89.029264944180753, 22.069972942099877 ], [ 89.027532170609973, 22.079139901085135 ] ] ], [ [ [ 89.88528904347811, 25.54881974545161 ], [ 89.870101928711222, 25.544221878051871 ], [ 89.885121899916683, 25.550137261673513 ], [ 89.88528904347811, 25.54881974545161 ] ] ] ] } },
{ "type": "Feature", "properties": { "name": "Bhutan" }, "geometry": { "type": "Polygon", "coordinates": [ [ [ 92.083756872969289, 27.278063616067101 ], [ 92.039596557617188, 27.266672134399471 ], [ 92.069648742676065, 27.223640441894531 ], [ 92.023376464843921, 27.162334442138672 ], [ 92.057179513108352, 27.045585054369589 ], [ 92.035355160079703, 26.854682187093605 ], [ 91.857780456542969, 26.914028167724609 ], [ 91.742551702061746, 26.827734463146218 ], [ 91.217512648486434, 26.808648179628022 ], [ 90.458829103379585, 26.868926764530315 ], [ 90.409706115722599, 26.901920318603629 ], [ 89.762690125824435, 26.723918603049061 ], [ 88.87070516620868, 27.084323719120597 ], [ 88.833016161744908, 27.123561629200044 ], [ 88.819121331326002, 27.253683024210112 ], [ 88.907272338867472, 27.283540725708121 ], [ 88.922370910644531, 27.326320648193644 ], [ 88.870248449929477, 27.362246965611551 ], [ 89.475810174521115, 28.042758897406397 ], [ 90.015828891971182, 28.296438503527217 ], [ 90.730513950567797, 28.064953925075756 ], [ 91.258853794319919, 28.040614325466294 ], [ 91.555345023204865, 27.858526994978991 ], [ 91.565467834472713, 27.815315246582031 ], [ 91.628158569336108, 27.800830841064567 ], [ 91.623741149902344, 27.70597076416027 ], [ 91.557739257812443, 27.633466720580998 ], [ 91.562004089355526, 27.584209442138615 ], [ 91.65323638916027, 27.482980728149641 ], [ 91.690086364746378, 27.5027503967288 ], [ 91.773811340332315, 27.46451568603527 ], [ 92.018760681152344, 27.479745864868391 ], [ 92.083756872969289, 27.278063616067101 ] ] ] } },
{ "type": "Feature", "properties": { "name": "Nepal" }, "geometry": { "type": "MultiPolygon", "coordinates": [ [ [ [ 88.054587785139674, 27.509640506466503 ], [ 88.067000843971783, 27.330637313920825 ], [ 87.994171142578182, 27.105207443237532 ], [ 88.040260314941577, 27.036317825317667 ], [ 88.137481689453068, 26.985267639160156 ], [ 88.123016357422046, 26.950115203857649 ], [ 88.174804315140918, 26.810405178325951 ], [ 88.06023766474982, 26.414615383402491 ], [ 87.940417323772962, 26.412210054187103 ], [ 87.890632629394815, 26.486419677734489 ], [ 87.851219177246264, 26.436214447021484 ], [ 87.79221343994169, 26.468915939331282 ], [ 87.768859863281307, 26.412096023559513 ], [ 87.680236816406534, 26.435094833374194 ], [ 87.662671692555023, 26.40663445929421 ], [ 87.552597687808472, 26.404424782562252 ], [ 87.46909332275419, 26.44006538391119 ], [ 87.368036413651751, 26.400719813763637 ], [ 87.188004461162791, 26.405544556681388 ], [ 87.093917846679972, 26.450016021728743 ], [ 87.074279785156534, 26.585466384887638 ], [ 87.017715454101733, 26.531814575195426 ], [ 86.935096740722656, 26.516492843628043 ], [ 86.896384330025199, 26.462043530157448 ], [ 86.550495229776317, 26.529056664759594 ], [ 86.330039978027628, 26.61915397644043 ], [ 86.224595092015051, 26.592197104232646 ], [ 86.030738830566463, 26.666421890259016 ], [ 85.958663843047589, 26.639084789863119 ], [ 85.734802616236323, 26.666672530509214 ], [ 85.736717224121264, 26.795616149902287 ], [ 85.636688232421932, 26.871902465820426 ], [ 85.336318969726847, 26.741415023803881 ], [ 85.215420065612619, 26.758266651824066 ], [ 85.179115295410213, 26.811914443969727 ], [ 85.197708129882983, 26.866594314575309 ], [ 85.099754090307044, 26.860284021316783 ], [ 84.688167437253625, 27.223303375555449 ], [ 84.622016906738565, 27.338207244873047 ], [ 84.295890808105412, 27.384172439575252 ], [ 84.256248474121264, 27.451900482177734 ], [ 84.210639953613281, 27.442333221435547 ], [ 84.207916259765909, 27.469415664673079 ], [ 84.150993347167969, 27.485704421997184 ], [ 84.153015136719034, 27.51661491394043 ], [ 84.099792480469034, 27.51677322387718 ], [ 84.029418945312784, 27.433629989624194 ], [ 83.870246887207088, 27.428506851196573 ], [ 83.905517578125, 27.376214981079386 ], [ 83.837601993301703, 27.328795893379407 ], [ 83.858505249023722, 27.350961685180664 ], [ 83.833221435547046, 27.36950874328636 ], [ 83.616737365722827, 27.46942329406761 ], [ 83.390930175781307, 27.479490280151651 ], [ 83.411689758300952, 27.412506103515796 ], [ 83.372159555029256, 27.358084855941808 ], [ 83.304248895199549, 27.364505723575562 ], [ 83.190216064453296, 27.454015731811523 ], [ 83.103104957562124, 27.451019373681476 ], [ 82.748296939627153, 27.603625199534047 ], [ 82.709915161133097, 27.721698760986442 ], [ 82.539596124748073, 27.693389124250555 ], [ 82.114384694357867, 27.876276032709722 ], [ 82.069717407226619, 27.923416137695597 ], [ 81.996303905217843, 27.927396099859102 ], [ 81.221685665234389, 28.330499891264655 ], [ 81.212417602539347, 28.360515594482592 ], [ 80.790756225585881, 28.524259567260742 ], [ 80.769630432129077, 28.565517425537223 ], [ 80.691925048828409, 28.587028503417969 ], [ 80.669342041015682, 28.64182090759283 ], [ 80.591453552246264, 28.647624969482422 ], [ 80.592041015625171, 28.679725646972656 ], [ 80.505187988281534, 28.665225982666072 ], [ 80.516237615007441, 28.627379517086549 ], [ 80.257904052734375, 28.729335784912394 ], [ 80.103371958173611, 28.830478063957127 ], [ 80.224571705272751, 29.122444609371232 ], [ 80.273406982421932, 29.142023086547908 ], [ 80.256366018273511, 29.199036153106491 ], [ 80.299003601074503, 29.205030441284407 ], [ 80.309415161479905, 29.326829943521567 ], [ 80.476721225917402, 29.729865220655341 ], [ 81.111256138029319, 30.183480943313402 ], [ 81.525804477874743, 30.422716986608631 ], [ 82.327512648450877, 30.115268052688137 ], [ 83.33711510613719, 29.463731594352197 ], [ 83.898992954446726, 29.320226141877658 ], [ 84.23457970575015, 28.839893703724698 ], [ 85.011638218123039, 28.642773952747344 ], [ 85.823319940131512, 28.203575954698707 ], [ 86.954517043000607, 27.974261786403517 ], [ 88.12044070836987, 27.876541652939594 ], [ 88.054587785139674, 27.509640506466503 ] ], [ [ 87.306213378906534, 27.84321594238304 ], [ 87.306175231933651, 27.843217849731445 ], [ 87.30680084228544, 27.836589813232422 ], [ 87.306213378906534, 27.84321594238304 ] ], [ [ 87.251319885253849, 27.843114852905273 ], [ 87.251182556152514, 27.843061447143668 ], [ 87.252487182617358, 27.842866897583008 ], [ 87.251319885253849, 27.843114852905273 ] ], [ [ 87.266281127929744, 27.849452972412166 ], [ 87.267211914062671, 27.850116729736499 ], [ 87.26291656494169, 27.850715637207315 ], [ 87.266281127929744, 27.849452972412166 ] ] ], [ [ [ 83.919075299317612, 27.306374658902104 ], [ 83.914333657654396, 27.317050618541526 ], [ 83.923599243164233, 27.316431045532227 ], [ 83.919075299317612, 27.306374658902104 ] ] ], [ [ [ 83.842013342318722, 27.321886547728987 ], [ 83.830589294433651, 27.321359634399414 ], [ 83.831734381252915, 27.322573883335924 ], [ 83.842013342318722, 27.321886547728987 ] ] ], [ [ [ 88.085845947265796, 27.141510009765682 ], [ 88.074951171875171, 27.200839996337834 ], [ 88.091987353306394, 27.138753680094339 ], [ 88.085845947265796, 27.141510009765682 ] ] ] ] } },
{ "type": "Feature", "properties": { "name": "Pakistan" }, "geometry": { "type": "MultiPolygon", "coordinates": [ [ [ [ 75.338507868033417, 34.572240730900788 ], [ 75.249710083007756, 34.647312164306584 ], [ 75.018745422363281, 34.641498565674055 ], [ 74.910507202148494, 34.683208465576172 ], [ 74.703002929687557, 34.693080902099723 ], [ 74.58017730712902, 34.770099639892692 ], [ 74.307296752929631, 34.800304412841797 ], [ 74.141792297363452, 34.691200256347884 ], [ 73.960220336914062, 34.696681976318473 ], [ 73.927330017090128, 34.645889282226506 ], [ 73.948066711425838, 34.573089599609375 ], [ 73.895339965820483, 34.54666900634777 ], [ 73.898742675781193, 34.495769500732479 ], [ 73.776985168457088, 34.416301727295036 ], [ 73.784314309913626, 34.347924398905278 ], [ 73.749948358051967, 34.317698879527853 ], [ 73.982034441394873, 33.743796060632945 ], [ 73.956253051757869, 33.720291137695312 ], [ 74.159466333829386, 33.333980985992326 ], [ 74.102981567383097, 33.270542144775504 ], [ 74.020301818847656, 33.258781433105696 ], [ 74.014274597168082, 33.198249816894531 ], [ 74.111701965332088, 33.164440155029354 ], [ 74.205245971679631, 33.043300628662109 ], [ 74.319649957234162, 33.021897044113302 ], [ 74.339166760985449, 32.983872676090421 ], [ 74.318031311035327, 32.919700622558707 ], [ 74.377084568232235, 32.909997841063849 ], [ 74.451559279278712, 32.764899603805503 ], [ 74.660880170210007, 32.63683161985788 ], [ 74.642211914062784, 32.611049652099609 ], [ 74.698417663574276, 32.484939575195369 ], [ 74.835327148437557, 32.496212005615178 ], [ 74.958349948104896, 32.454831846348178 ], [ 75.258641798813215, 32.271105455040498 ], [ 74.939929568354231, 32.054896455115781 ], [ 74.862251281738338, 32.045108795166129 ], [ 74.783835222219821, 31.94900468427592 ], [ 74.709197998047046, 31.957948684692383 ], [ 74.703262329101506, 31.924898147583121 ], [ 74.599105834961222, 31.885110855102539 ], [ 74.553904816794102, 31.793023776553028 ], [ 74.405928989565012, 31.692639471965279 ], [ 74.421380242820277, 30.979814764931177 ], [ 73.435725065509175, 29.952271257987515 ], [ 73.391372680664347, 29.937870025634879 ], [ 73.35443557265674, 29.820677567390199 ], [ 72.838865658330064, 28.986058659011071 ], [ 72.384696960449219, 28.763940811157283 ], [ 72.301956176757983, 28.664815902709961 ], [ 72.184425354003906, 28.358005523681925 ], [ 71.995880126953182, 28.20695686340332 ], [ 71.917736368172683, 28.053562344320721 ], [ 71.777665643200322, 27.913180243434525 ], [ 70.605372966931071, 27.978616755667982 ], [ 70.483757019043026, 28.034011840820426 ], [ 70.366165161132983, 28.008249282836971 ], [ 70.156951904297046, 27.834049224853629 ], [ 70.016265869140682, 27.555995941162109 ], [ 69.586662292480639, 27.177984237671012 ], [ 69.513206481933764, 27.016868591308537 ], [ 69.483734130859432, 26.806230545044002 ], [ 69.515449523926065, 26.740055084228516 ], [ 69.815361022949219, 26.592157363891545 ], [ 70.014510319280078, 26.597821037343266 ], [ 70.168926629522019, 26.491871649678842 ], [ 70.172668457031307, 26.245077133178825 ], [ 70.082572937011889, 26.073858261108398 ], [ 70.096076965332031, 25.944316864013672 ], [ 70.279617309570369, 25.701259613037223 ], [ 70.849612020738263, 25.193857418668429 ], [ 71.043240187468228, 24.3565239527302 ], [ 70.580969635174611, 24.357072142536254 ], [ 70.611869812011719, 24.400539398193587 ], [ 70.574867248535156, 24.42031478881853 ], [ 70.353407935992067, 24.357341999664555 ], [ 68.842599318318776, 24.359133612560939 ], [ 68.41336148626641, 23.929113046819342 ], [ 68.430137634277628, 23.995420455932617 ], [ 68.395973205566463, 23.965415954589901 ], [ 68.35986328125, 23.977640151977766 ], [ 68.334587097168253, 23.917640686035327 ], [ 68.277084350585938, 23.914861679077262 ], [ 68.259017944335994, 23.875141143798942 ], [ 68.317642211914006, 23.879301071166992 ], [ 68.259307861328296, 23.871805191040266 ], [ 68.287361145019702, 23.839307785034237 ], [ 68.260406494140909, 23.824859619140682 ], [ 68.245407104492358, 23.853759765625 ], [ 68.234580993652401, 23.835969924926815 ], [ 68.212913513183878, 23.834583282470703 ], [ 68.234306335449219, 23.774860382080021 ], [ 68.176645135373406, 23.691965033456711 ], [ 67.443666619745471, 23.944843654876991 ], [ 67.145441928989072, 24.663611151624647 ], [ 66.372827589793275, 25.425140896093851 ], [ 64.530407749291129, 25.237038682551429 ], [ 62.905700718034609, 25.218409328710209 ], [ 61.49736290878419, 25.078237006118499 ], [ 61.87418745305655, 26.239974880472104 ], [ 63.316631707619592, 26.756532497661667 ], [ 63.233897739520302, 27.217047024030709 ], [ 62.755425652929858, 27.378923448184988 ], [ 62.727830438085988, 28.25964488373539 ], [ 61.771868117118629, 28.699333807890799 ], [ 61.36930870956494, 29.303276272085924 ], [ 60.874248488208792, 29.829238999952608 ], [ 62.549856805272782, 29.318572496044311 ], [ 63.550260858011171, 29.468330796826166 ], [ 64.148002150331251, 29.340819200145972 ], [ 64.350418735618518, 29.560030625928093 ], [ 65.046862013616106, 29.472180691031905 ], [ 66.346472609324422, 29.887943427036177 ], [ 66.381457553986024, 30.738899237586452 ], [ 66.938891229118468, 31.304911200479353 ], [ 67.683393589147471, 31.303154201781421 ], [ 67.792689243444784, 31.582930406209631 ], [ 68.556932000609322, 31.713310044882018 ], [ 68.926676873657669, 31.620189113892067 ], [ 69.317764113242561, 31.901412258424443 ], [ 69.262522007122556, 32.5019440780883 ], [ 69.687147251264861, 33.105498969041236 ], [ 70.323594191371598, 33.358532619758392 ], [ 69.930543247359594, 34.02012014417511 ], [ 70.881803012988399, 33.98885590263852 ], [ 71.156773309213463, 34.348911444632151 ], [ 71.115018751921639, 34.733125718722235 ], [ 71.613076206350712, 35.153203436822864 ], [ 71.498767938121091, 35.650563259416003 ], [ 71.26234826038575, 36.074387518857804 ], [ 71.846291945283923, 36.509942328429858 ], [ 72.920024855444467, 36.720007025696319 ], [ 74.067551710917826, 36.836175645488453 ], [ 74.575892775372978, 37.020841376283457 ], [ 75.158027785140916, 37.133030910789117 ], [ 75.89689741405013, 36.666806138651836 ], [ 76.192848341785691, 35.898403428687828 ], [ 77.820011407201065, 35.498297707763768 ], [ 77.156822204589957, 35.054698944091911 ], [ 77.068367004394474, 35.024120330810774 ], [ 77.018096923828182, 35.038463592529411 ], [ 76.997489929199276, 34.939151763916016 ], [ 76.870040893554858, 34.972431182861555 ], [ 76.749366760253963, 34.92660140991228 ], [ 76.743240356445369, 34.840099334716911 ], [ 76.681816101074219, 34.759590148925781 ], [ 76.561813354492358, 34.758338928222884 ], [ 76.474342346191463, 34.794372558593977 ], [ 76.157913208007869, 34.643409729003849 ], [ 76.036460876465128, 34.670269012451172 ], [ 75.749206542969034, 34.515830993652344 ], [ 75.338507868033417, 34.572240730900788 ] ], [ [ 68.224029541015796, 23.764030456543253 ], [ 68.21652984619169, 23.7793102264406 ], [ 68.214859008789233, 23.758195877075309 ], [ 68.224029541015796, 23.764030456543253 ] ], [ [ 68.248191833496378, 23.88042068481451 ], [ 68.215972900390909, 23.866809844970874 ], [ 68.215972900390909, 23.847629547119368 ], [ 68.234024047851619, 23.842916488647518 ], [ 68.248191833496378, 23.88042068481451 ] ] ], [ [ [ 68.405610795328272, 23.921348222162177 ], [ 68.352912902832315, 23.900693893432845 ], [ 68.340918105172463, 23.856537562097255 ], [ 68.344856262207088, 23.901250839233626 ], [ 68.405610795328272, 23.921348222162177 ] ] ], [ [ [ 68.288749694824276, 23.81736183166521 ], [ 68.29013824462919, 23.816804885864258 ], [ 68.293291717760695, 23.808824325915094 ], [ 68.288749694824276, 23.81736183166521 ] ] ], [ [ [ 68.263493592010931, 23.778971861998563 ], [ 68.265686035156307, 23.792921066284237 ], [ 68.284574620620234, 23.800091332772229 ], [ 68.263493592010931, 23.778971861998563 ] ] ] ] } },
{ "type": "Feature", "properties": { "name": "Afghanistan" }, "geometry": { "type": "Polygon", "coordinates": [ [ [ 67.075782098259623, 37.356143907209287 ], [ 67.829999627559516, 37.144994004864685 ], [ 68.135562371701383, 37.023115139304309 ], [ 68.859445835245936, 37.344335842430596 ], [ 69.196272820924378, 37.151143500307427 ], [ 69.518785434857961, 37.60899669041342 ], [ 70.116578403610333, 37.588222764632093 ], [ 70.270574171840138, 37.735164699854025 ], [ 70.376304152309302, 38.138395901027522 ], [ 70.806820509732887, 38.486281643216415 ], [ 71.348131137990265, 38.258905341132163 ], [ 71.239403924448169, 37.953265082341886 ], [ 71.541917759084782, 37.905774441065645 ], [ 71.448693475230243, 37.06564484308052 ], [ 71.844638299450594, 36.738171291646921 ], [ 72.193040805962397, 36.948287665345674 ], [ 72.636889682917285, 37.047558091778356 ], [ 73.260055779925011, 37.495256862939002 ], [ 73.9486959166465, 37.4215662704908 ], [ 74.980002475895418, 37.419990139305895 ], [ 75.158027785140916, 37.133030910789117 ], [ 74.575892775372978, 37.020841376283457 ], [ 74.067551710917826, 36.836175645488453 ], [ 72.920024855444467, 36.720007025696319 ], [ 71.846291945283923, 36.509942328429858 ], [ 71.26234826038575, 36.074387518857804 ], [ 71.498767938121091, 35.650563259416003 ], [ 71.613076206350712, 35.153203436822864 ], [ 71.115018751921639, 34.733125718722235 ], [ 71.156773309213463, 34.348911444632151 ], [ 70.881803012988399, 33.98885590263852 ], [ 69.930543247359594, 34.02012014417511 ], [ 70.323594191371598, 33.358532619758392 ], [ 69.687147251264861, 33.105498969041236 ], [ 69.262522007122556, 32.5019440780883 ], [ 69.317764113242561, 31.901412258424443 ], [ 68.926676873657669, 31.620189113892067 ], [ 68.556932000609322, 31.713310044882018 ], [ 67.792689243444784, 31.582930406209631 ], [ 67.683393589147471, 31.303154201781421 ], [ 66.938891229118468, 31.304911200479353 ], [ 66.381457553986024, 30.738899237586452 ], [ 66.346472609324422, 29.887943427036177 ], [ 65.046862013616106, 29.472180691031905 ], [ 64.350418735618518, 29.560030625928093 ], [ 64.148002150331251, 29.340819200145972 ], [ 63.550260858011171, 29.468330796826166 ], [ 62.549856805272782, 29.318572496044311 ], [ 60.874248488208792, 29.829238999952608 ], [ 61.781221551363444, 30.735850328081238 ], [ 61.699314406180832, 31.379506130492672 ], [ 60.941944614511129, 31.548074652628753 ], [ 60.863654819588966, 32.182919623334428 ], [ 60.536077915290775, 32.981268825811568 ], [ 60.963700392506006, 33.528832302376259 ], [ 60.528429803311582, 33.676446031218006 ], [ 60.803193393807447, 34.404101874319863 ], [ 61.210817091725744, 35.650072333309225 ], [ 62.230651483005886, 35.270663967422294 ], [ 62.98466230657661, 35.404040839167621 ], [ 63.193538445900352, 35.857165635718914 ], [ 63.98289594915871, 36.007957465146603 ], [ 64.546479119733903, 36.312073269184268 ], [ 64.746105177677407, 37.111817735333304 ], [ 65.588947788357842, 37.305216783185642 ], [ 65.745630731066825, 37.661164048812068 ], [ 66.217384881459338, 37.39379018813392 ], [ 67.075782098259623, 37.356143907209287 ] ] ] } },
{ "type": "Feature", "properties": { "name": "Sri Lanka" }, "geometry": { "type": "Polygon", "coordinates": [ [ [ 81.637322218760588, 6.481775214051922 ], [ 81.218019647144331, 6.197141424988288 ], [ 80.348356968104412, 5.968369859232155 ], [ 79.872468703128533, 6.76346344647493 ], [ 79.695166863935128, 8.200843410673386 ], [ 80.147800734379643, 9.824077663609557 ], [ 80.838817986986555, 9.268426825391188 ], [ 81.304319289071771, 8.56420624433369 ], [ 81.787959018891399, 7.523055324733164 ], [ 81.637322218760588, 6.481775214051922 ] ] ] } },
{ "type": "Feature", "properties": { "name": "China" }, "geometry": { "type": "MultiPolygon", "coordinates": [ [ [ [ 108.655207961056163, 18.507681993071387 ], [ 108.62621748254044, 19.367887885001906 ], [ 109.119055617308035, 19.821038519769345 ], [ 110.211598748822809, 20.101253973872033 ], [ 110.786550734502214, 20.077534491450052 ], [ 111.010051304164577, 19.695929877190721 ], [ 110.570646600386766, 19.255879218009269 ], [ 110.339187860151469, 18.678395087147592 ], [ 109.475209588663645, 18.197700913968575 ], [ 108.655207961056163, 18.507681993071387 ] ] ], [ [ [ 80.180150180994303, 42.920067857426943 ], [ 80.866206496101256, 43.180362046881008 ], [ 79.966106398441411, 44.917516994804629 ], [ 81.947070753918098, 45.317027492853121 ], [ 82.458925815769064, 45.539649563166506 ], [ 83.180483839860472, 47.330031236350862 ], [ 85.164290399113241, 47.000955715516099 ], [ 85.720483839870667, 47.452969468773105 ], [ 85.768232863308299, 48.455750637396989 ], [ 86.598776483103364, 48.549181626980626 ], [ 87.35997033076265, 49.214980780629119 ], [ 87.751264276076711, 49.297197984405486 ], [ 88.013832228551735, 48.599462795600616 ], [ 88.854297723346761, 48.069081732772965 ], [ 90.280825636763922, 47.69354909930793 ], [ 90.970809360725013, 46.88814606382293 ], [ 90.585768263718279, 45.719716091487527 ], [ 90.945539585334302, 45.286073309910279 ], [ 92.133890822318222, 45.115075995456458 ], [ 93.480733677141302, 44.975472113619965 ], [ 94.688928664125328, 44.352331854828421 ], [ 95.306875441471533, 44.241330878265472 ], [ 95.762454868556688, 43.319449164394605 ], [ 96.349395786527808, 42.725635280928685 ], [ 97.451757440178014, 42.74888967546002 ], [ 99.515817498780038, 42.524691473961724 ], [ 100.845865513108265, 42.663804429691453 ], [ 101.833040399179936, 42.514872951826277 ], [ 103.312278273534815, 41.907468166667599 ], [ 104.522281935648991, 41.908346666016556 ], [ 104.964993931093474, 41.597409572916348 ], [ 106.129315627061686, 42.134327704428912 ], [ 107.744772576937947, 42.481515814781872 ], [ 109.243595819131457, 42.5194463160841 ], [ 110.412103306115284, 42.871233628911028 ], [ 111.129682244920232, 43.40683401140015 ], [ 111.82958784388137, 43.743118394539522 ], [ 111.66773725794323, 44.073175767587713 ], [ 111.348376906379457, 44.45744171811009 ], [ 111.873306105600307, 45.102079372735062 ], [ 113.463906691544167, 44.808893134127118 ], [ 114.460331658996068, 45.339816799493825 ], [ 115.985096470200091, 45.727235012386004 ], [ 116.717868280098855, 46.388202419615212 ], [ 117.421701287914189, 46.67273285581426 ], [ 118.874325799638726, 46.805412095723653 ], [ 119.663269891438759, 46.692679958678923 ], [ 119.772823927897505, 47.048058783550132 ], [ 118.866574334794947, 47.747060044946167 ], [ 118.064142694166719, 48.066730455103688 ], [ 117.29550744025741, 47.697709052107427 ], [ 116.308952671373234, 47.85341014260284 ], [ 115.742837355615791, 47.726544501326288 ], [ 115.485282017073061, 48.135382595403442 ], [ 116.191802199367572, 49.134598090199106 ], [ 116.678800897286123, 49.888531399121405 ], [ 117.879244419426399, 49.510983384796965 ], [ 119.288460728025797, 50.142882798862004 ], [ 119.27939, 50.58292 ], [ 120.182080000000155, 51.643550000000118 ], [ 120.7382, 51.96411 ], [ 120.725789015791975, 52.516226304730935 ], [ 120.177088657716808, 52.753886216841238 ], [ 121.003084751470169, 53.251401068731191 ], [ 122.24574791879283, 53.431725979213695 ], [ 123.57147, 53.4588 ], [ 125.068211297710377, 53.16104482686886 ], [ 125.946348911646169, 52.792798570356979 ], [ 126.564399041856973, 51.784255479532703 ], [ 126.939156528837657, 51.353894151405918 ], [ 127.287455682484847, 50.739797268265477 ], [ 127.65740000000028, 49.760270000000105 ], [ 129.397817824420429, 49.440600084015443 ], [ 130.582293328982416, 48.72968740497614 ], [ 130.987260000000106, 47.79013 ], [ 132.50669, 47.78896 ], [ 133.373595819227944, 48.183441677434871 ], [ 135.026311476786645, 48.478229885443874 ], [ 134.50081, 47.57845 ], [ 134.112350000000106, 47.21248 ], [ 133.76964399631288, 46.116926988299014 ], [ 133.097120000000132, 45.14409 ], [ 131.883454217659505, 45.321161607436522 ], [ 131.02519000000018, 44.96796 ], [ 131.28855512911548, 44.11151968034828 ], [ 131.144687941614905, 42.92998973242689 ], [ 130.633866408409745, 42.903014634770528 ], [ 130.639999706909549, 42.395024275221793 ], [ 129.994267205933227, 42.985386867843786 ], [ 129.596668735879518, 42.424981797854556 ], [ 128.05221520397231, 41.994284572917948 ], [ 128.208433058790661, 41.466771552082491 ], [ 127.343782993683021, 41.503151760415967 ], [ 126.869083286649868, 41.81656932226619 ], [ 126.18204511932943, 41.107336127276369 ], [ 125.079941847840644, 40.569823716792449 ], [ 124.265624627785314, 39.928493353834156 ], [ 122.867570428560953, 39.63778758397622 ], [ 122.131387974130902, 39.170451768544666 ], [ 121.054554478032856, 38.897471014962846 ], [ 121.58599490772248, 39.360853583324072 ], [ 121.376757033372684, 39.750261338859488 ], [ 122.168595005381064, 40.422442531896024 ], [ 121.640358514493528, 40.946389878903332 ], [ 120.76862877816194, 40.593388169917539 ], [ 119.63960208544907, 39.898055935214245 ], [ 119.023463983233057, 39.252333075511146 ], [ 118.042748651197911, 39.204273993479703 ], [ 117.532702264477109, 38.737635809884083 ], [ 118.059698520989642, 38.061475531561058 ], [ 118.878149855628322, 37.897325344385933 ], [ 118.911636183753444, 37.448463853498708 ], [ 119.702802362142052, 37.156388658185051 ], [ 120.823457472823605, 37.870427761378011 ], [ 121.711258579597995, 37.48112335870718 ], [ 122.35793745329849, 37.454484157860719 ], [ 122.5199947449658, 36.93061432550185 ], [ 121.104163853033072, 36.651329047180425 ], [ 120.637008905114527, 36.111439520811075 ], [ 119.664561802246055, 35.609790554337721 ], [ 119.151208123858595, 34.909859117160437 ], [ 120.227524855633732, 34.360331936168649 ], [ 120.620369093916551, 33.376722723925141 ], [ 121.229014113450233, 32.460318711877193 ], [ 121.90814578663003, 31.692174384074647 ], [ 121.891919386890379, 30.949351508095106 ], [ 121.264257440273283, 30.676267401648701 ], [ 121.503519321784665, 30.142914943964289 ], [ 122.0921138855891, 29.832520453403149 ], [ 121.938428175953064, 29.018022365834781 ], [ 121.684438511238511, 28.225512600206617 ], [ 121.125661248866493, 28.135673122667185 ], [ 120.395473260582321, 27.053206895449321 ], [ 119.585496860839498, 25.740780544532612 ], [ 118.656871372554519, 24.547390855400241 ], [ 117.281606479970876, 23.624501451099658 ], [ 115.890735304835118, 22.78287323657807 ], [ 114.763827345846238, 22.668074042241667 ], [ 114.152546828265642, 22.22376007739615 ], [ 113.806779819800738, 22.548339748621402 ], [ 113.241077915501592, 22.051367499270455 ], [ 111.843592157032475, 21.550493679281473 ], [ 110.785465529424073, 21.397143866455338 ], [ 110.444039341271676, 20.341032619706329 ], [ 109.889861281373612, 20.282457383703488 ], [ 109.627655063924664, 21.008227037026703 ], [ 109.864488153118316, 21.395050970947523 ], [ 108.522812941524407, 21.715212307211814 ], [ 108.050180291782937, 21.552379869060118 ], [ 107.043420037872636, 21.811898912029914 ], [ 106.567273390735323, 22.218204860924772 ], [ 106.725403273548466, 22.794267889898421 ], [ 105.811247186305224, 22.976892401617903 ], [ 105.329209425886631, 23.352063300056912 ], [ 104.476858351664475, 22.819150092046968 ], [ 103.50451460166056, 22.703756618739209 ], [ 102.706992222100098, 22.708795070887675 ], [ 102.170435825613581, 22.464753119389304 ], [ 101.652017856861519, 22.318198757409547 ], [ 101.803119744882935, 21.174366766845068 ], [ 101.270025669359967, 21.201651923095184 ], [ 101.180005324307544, 21.436572984294028 ], [ 101.15003299357825, 21.849984442629022 ], [ 100.416537713627378, 21.558839423096614 ], [ 99.240898878987252, 22.118314317304581 ], [ 99.531992222087396, 22.949038804612581 ], [ 98.898749220782776, 23.142722072842531 ], [ 98.660262485755766, 24.063286037689966 ], [ 97.604719679761985, 23.897404690033042 ], [ 97.724609002679145, 25.083637193293001 ], [ 98.671838006589155, 25.918702500913525 ], [ 98.712093947344513, 26.743535874940267 ], [ 98.682690057370465, 27.508812160750619 ], [ 98.246230910233294, 27.747221381129179 ], [ 97.911987746169444, 28.335945136014345 ], [ 97.327113885490036, 28.261582749946339 ], [ 97.173919677734318, 28.299060821533317 ], [ 97.092567443847713, 28.36969184875494 ], [ 96.99649810791044, 28.316230773925838 ], [ 96.898666381836222, 28.385900497436808 ], [ 96.774375915527514, 28.374071121215877 ], [ 96.751052856445597, 28.421712875366268 ], [ 96.664566040039119, 28.465770721435831 ], [ 96.579589843749943, 28.463092803955192 ], [ 96.431835266122107, 28.385667182382459 ], [ 96.263771057129077, 28.413379669189453 ], [ 96.372962951660213, 28.487039566040096 ], [ 96.337943074962666, 28.521824959858865 ], [ 96.406608581542969, 28.564041137695369 ], [ 96.400917053222827, 28.594310760498161 ], [ 96.494056701660213, 28.638191223144588 ], [ 96.472740173340128, 28.688209533691463 ], [ 96.585937500000171, 28.721588134765682 ], [ 96.615997314453409, 28.778579711914119 ], [ 96.518829345703182, 28.970989227295036 ], [ 96.487525939941577, 28.965339660644759 ], [ 96.477401733398608, 28.994039535522461 ], [ 96.525199890137003, 29.079280853271541 ], [ 96.431004075883266, 29.037302284640489 ], [ 96.331568119532676, 29.169163962265209 ], [ 96.392807006836051, 29.256500244140625 ], [ 96.363151550293139, 29.285631179809798 ], [ 96.281444484019474, 29.235632741869598 ], [ 96.117678664131034, 29.452802028922466 ], [ 96.080535888671932, 29.463344573974609 ], [ 95.957107543945369, 29.382667541504134 ], [ 95.880851745605526, 29.391490936279297 ], [ 95.796485900879077, 29.336330413818359 ], [ 95.777626037597713, 29.356399536132926 ], [ 95.638023376464901, 29.249839782714844 ], [ 95.598731994628963, 29.261861801147518 ], [ 95.585800170898494, 29.21799278259283 ], [ 95.537719726562557, 29.214000701904411 ], [ 95.546806335449389, 29.128650665283203 ], [ 95.496330261230526, 29.140310287475586 ], [ 95.484459789225625, 29.078769118290584 ], [ 95.409145967049838, 29.034282370918397 ], [ 95.261723856024261, 29.073629995771938 ], [ 95.250762939453125, 29.109880447387695 ], [ 95.121757507324332, 29.116250991821516 ], [ 94.997497558593921, 29.173011779785213 ], [ 95.01339413049449, 29.146375673747173 ], [ 94.784869449041963, 29.213319664648278 ], [ 94.628158569336222, 29.348590850830135 ], [ 94.583394827041147, 29.272339614599847 ], [ 94.431182861328296, 29.22682189941429 ], [ 93.458796222333234, 28.665738695166041 ], [ 93.336906433105412, 28.640159606933707 ], [ 93.283410267621178, 28.534456836693323 ], [ 92.858336581056122, 28.187126699649642 ], [ 92.826469421387003, 28.172035217285213 ], [ 92.799636840820483, 28.202230453491325 ], [ 92.686988830566463, 28.125799179077148 ], [ 92.662933349609432, 28.062770843505803 ], [ 92.682821425326864, 28.043712263471971 ], [ 92.503118931043645, 27.896876329046449 ], [ 91.832855265008632, 27.792875081622128 ], [ 91.746276855468807, 27.803350448608455 ], [ 91.669326782226562, 27.856710433960018 ], [ 91.555345023204865, 27.858526994978991 ], [ 91.258853794319919, 28.040614325466294 ], [ 90.730513950567797, 28.064953925075756 ], [ 90.015828891971182, 28.296438503527217 ], [ 89.475810174521115, 28.042758897406397 ], [ 88.870248449929477, 27.362246965611551 ], [ 88.801131266380736, 27.422411016531786 ], [ 88.783634103813455, 27.586608527323289 ], [ 88.846611022949503, 27.66889953613304 ], [ 88.881385803222827, 27.89253044128418 ], [ 88.836250305175838, 27.932001113891658 ], [ 88.829055786133097, 28.015159606933878 ], [ 88.730325962278556, 28.086864732367516 ], [ 88.666770935058537, 28.074079513549975 ], [ 88.607467651367358, 28.127550125122355 ], [ 88.616462707519702, 28.103679656982649 ], [ 88.554450988769702, 28.084831237792969 ], [ 88.538948059082315, 28.038890838623161 ], [ 88.483116149902514, 28.045587539672852 ], [ 88.389801025390909, 27.978080749511946 ], [ 88.123908996582315, 27.950920104980639 ], [ 88.12044070836987, 27.876541652939594 ], [ 86.954517043000607, 27.974261786403517 ], [ 85.823319940131512, 28.203575954698707 ], [ 85.011638218123039, 28.642773952747344 ], [ 84.23457970575015, 28.839893703724698 ], [ 83.898992954446726, 29.320226141877658 ], [ 83.33711510613719, 29.463731594352197 ], [ 82.327512648450877, 30.115268052688137 ], [ 81.525804477874743, 30.422716986608631 ], [ 81.111256138029319, 30.183480943313402 ], [ 81.00796091091398, 30.235447321886333 ], [ 81.019607543945597, 30.252952575683821 ], [ 80.785368357528142, 30.347430510459496 ], [ 80.584190368652287, 30.487222671509016 ], [ 80.548249487536779, 30.466721684978125 ], [ 80.20979110347325, 30.636995346294441 ], [ 80.180496215820369, 30.66986083984375 ], [ 80.219772338867244, 30.697250366211051 ], [ 80.223838806152457, 30.764099121093921 ], [ 80.157272338867301, 30.812751770019531 ], [ 80.103149414062443, 30.779670715332315 ], [ 80.044113159179744, 30.843999862670955 ], [ 79.915046691894815, 30.892219543456974 ], [ 79.854927062988338, 30.978910446167106 ], [ 79.742149353027514, 31.006790161132869 ], [ 79.61193287814703, 30.953243574110857 ], [ 79.284896850585881, 31.170101165771541 ], [ 79.272819519043026, 31.230739593505859 ], [ 79.233886718750057, 31.254039764404354 ], [ 79.248092651367131, 31.296619415283317 ], [ 79.128860473633097, 31.438730239868107 ], [ 79.045196533203296, 31.468120574951286 ], [ 78.982509767987324, 31.358899021659091 ], [ 78.738894484374015, 31.515906073527063 ], [ 78.83109283447277, 31.615261077880859 ], [ 78.779647827148381, 31.689840316772461 ], [ 78.734397888183878, 31.69198036193859 ], [ 78.691352844238281, 31.79335021972679 ], [ 78.771026611328409, 31.999811172485465 ], [ 78.576087158515961, 32.155795563217907 ], [ 78.592910766601506, 32.218669891357706 ], [ 78.554346448089944, 32.24124412658383 ], [ 78.469078360584632, 32.576377405833547 ], [ 78.532712929125339, 32.604258132629283 ], [ 78.765042446677597, 32.56075489887391 ], [ 78.781181335449219, 32.475299835205135 ], [ 78.977203369140909, 32.342769622802962 ], [ 79.049217224121094, 32.383369445801065 ], [ 79.104469299316349, 32.371711730957145 ], [ 79.126525878906307, 32.464309692382983 ], [ 79.202957153320369, 32.510829925537166 ], [ 79.258407592773438, 32.523380279541072 ], [ 79.312217712402514, 32.487091064453239 ], [ 79.448013305664233, 32.586078643798828 ], [ 79.545356750488338, 32.607360839843921 ], [ 79.564292907715128, 32.670761108398494 ], [ 79.540527343750171, 32.748691558838004 ], [ 79.47122955322294, 32.802822113037337 ], [ 79.448577880859546, 32.889228820800781 ], [ 79.352470397949389, 32.979030609130916 ], [ 79.409835815429631, 33.17877197265625 ], [ 79.185462951660213, 33.191230773925838 ], [ 79.074966430664062, 33.228610992431925 ], [ 79.066596984863338, 33.295890808105469 ], [ 78.811086460285736, 33.506198025032418 ], [ 78.894924646246153, 34.182105933346101 ], [ 78.956199645996151, 34.217830657959155 ], [ 78.993400573730582, 34.288742065429915 ], [ 78.981460571289062, 34.332851409912109 ], [ 78.830245482229998, 34.411381679547169 ], [ 78.004712268738146, 35.311613364493979 ], [ 77.9970703125, 35.394088745117301 ], [ 78.109832763672046, 35.476768493652344 ], [ 77.990646362304744, 35.487110137939567 ], [ 77.899566650390909, 35.427894592285099 ], [ 77.846778869628906, 35.50078201293951 ], [ 76.192848341785691, 35.898403428687828 ], [ 75.89689741405013, 36.666806138651836 ], [ 75.158027785140916, 37.133030910789117 ], [ 74.980002475895418, 37.419990139305895 ], [ 74.829985792952101, 37.990007025701402 ], [ 74.864815708316826, 38.378846340481601 ], [ 74.257514276022732, 38.606506862943448 ], [ 73.928852166646436, 38.505815334622739 ], [ 73.675379266254794, 39.431236884105601 ], [ 73.960013055318427, 39.660008449861735 ], [ 73.822243686828301, 39.893973497063186 ], [ 74.776862420556057, 40.366425279291633 ], [ 75.467827996730705, 40.56207225194867 ], [ 76.526368035797447, 40.427946071935118 ], [ 76.904484490877081, 41.066485907549648 ], [ 78.187196893225973, 41.185315863604806 ], [ 78.54366092317531, 41.582242540038692 ], [ 80.119430373051387, 42.123940741538249 ], [ 80.259990268885304, 42.349999294599058 ], [ 80.180150180994303, 42.920067857426943 ] ] ] ] } }
]
}
